OBJECT_NAME,OBJECT_ID,EPOCH,MEAN_MOTION,ECCENTRICITY,INCLINATION,RA_OF_ASC_NODE,ARG_OF_PERICENTER,MEAN_ANOMALY,EPHEMERIS_TYPE,CLASSIFICATION_TYPE,NORAD_CAT_ID,ELEMENT_SET_NO,REV_AT_EPOCH,BSTAR,MEAN_MOTION_DOT,MEAN_MOTION_DDOT
STARLINK-4621,2022-105AE,2026-07-15T13:24:48.185856,15.05656655,.00016901,97.2833,74.0852,91.9607,268.1815,0,U,53676,999,21247,.14759187E-4,.157E-5,0
SHERPA-LTC2,2022-107BG,2026-07-15T01:35:05.758368,14.69917640,.03928478,53.2371,102.2960,304.3565,52.0826,0,U,53754,999,20664,.116085E-3,.2023E-4,0
CENTISPACE-1 S3,2022-108A,2026-07-15T14:14:20.489280,14.61283538,.00107593,53.5337,297.7960,65.5474,294.6622,0,U,53757,999,20568,.62229399E-4,.12E-5,0
CENTISPACE-1 S4,2022-108B,2026-07-15T13:32:31.536096,14.61971636,.00100734,53.5310,295.2987,54.9691,305.2229,0,U,53758,999,20571,.45694591E-4,.4E-6,0
BLUEWALKER-3,2022-111AL,2026-07-15T12:05:55.160160,15.38612235,.00045586,53.2283,260.9974,267.8517,92.1966,0,U,53807,999,21456,.91224117E-4,.3136E-4,0
YUNHAI-1 03,2022-115A,2026-07-15T14:39:56.398752,14.32736844,.00041281,98.5544,194.3988,338.1834,21.9173,0,U,53877,999,19958,.93565926E-4,.211E-5,0
CENTISPACE-1 S5,2022-126A,2026-07-15T05:34:31.638432,14.63056804,.00143735,54.9989,100.7282,124.4915,235.7439,0,U,54020,999,20114,.10761408E-3,.367E-5,0
CENTISPACE-1 S6,2022-126B,2026-07-15T09:01:49.044576,14.62316953,.00161737,54.9992,102.1498,126.0107,234.2389,0,U,54021,999,20112,.90083646E-4,.27E-5,0
OTB-3-GAZELLE,2022-127A,2026-07-15T11:53:46.484160,14.42684093,.00144449,98.3960,187.7710,102.1036,258.1774,0,U,54023,999,19844,.30931917E-4,.6E-6,0
ASO-S,2022-129A,2026-07-15T13:47:49.401312,14.52074994,.00145424,98.2756,201.2499,11.1613,348.9902,0,U,54029,999,19954,.34801774E-4,.96E-6,0
HJ-2E,2022-132A,2026-07-15T14:40:25.062816,15.22697342,.00180126,97.3800,200.4839,268.7959,91.1214,0,U,54035,999,20874,.17360886E-3,.3992E-4,0
COSMOS 2561,2022-137A,2026-07-15T12:43:48.238752,15.52379139,.0008168,96.9171,254.4816,279.2853,80.7477,0,U,54109,999,21074,.13202E-3,.7969E-4,0
GONETS-M 23,2022-139A,2026-07-15T14:20:40.954272,12.42891961,.00221487,82.5095,330.6382,157.6200,202.5851,0,U,54150,999,16917,.11368066E-3,.26E-6,0
GONETS-M 24,2022-139B,2026-07-15T13:41:53.377152,12.42892524,.00172232,82.5011,329.6954,167.2552,192.8967,0,U,54151,999,16917,.1075458E-3,.25E-6,0
GONETS-M 25,2022-139C,2026-07-15T13:22:21.281664,12.42890918,.00211528,82.5077,330.4054,166.2819,193.8840,0,U,54152,999,16917,.12136839E-3,.27E-6,0
SKIF-D,2022-139D,2026-07-15T00:53:52.073664,5.00430900,.00074538,89.9489,96.6602,187.5838,172.4779,0,U,54153,999,6550,0,.13E-6,0
MATS,2022-147A,2026-07-15T11:55:50.725632,15.05503454,.00141001,97.6829,197.9741,102.4160,257.8645,0,U,54227,999,20202,.12374168E-3,.172E-4,0
EOS-6 (OCEANSAT-3),2022-158A,2026-07-15T13:59:33.660672,14.46984498,.00004403,98.3550,294.4015,145.8213,214.3007,0,U,54361,999,19194,.43976363E-4,.116E-5,0
DONGPO 09,2022-167D,2026-07-15T12:59:16.088352,15.36939202,.00027691,97.6914,8.8296,51.5463,308.6029,0,U,54685,999,19980,.20214162E-3,.7215E-4,0
DONGPO 08,2022-167E,2026-07-15T13:43:30.902880,15.34188344,.00092511,97.6881,5.9041,72.7840,287.4414,0,U,54686,999,19967,.17831928E-3,.5822E-4,0
2022-167F,2022-167F,2026-07-15T14:52:33.998016,16.20119605,.00080076,97.5968,28.5109,254.6641,105.3763,0,U,54687,999,20138,.70265756E-3,.1338103E-1,.2553224E-5
DONGPO 10,2022-167H,2026-07-15T13:31:25.604256,15.35005943,.0004943,97.6961,7.9141,27.2452,332.9049,0,U,54689,999,19971,.19138084E-3,.6415E-4,0
JILIN-1 GAOFEN 03D48,2022-167P,2026-07-15T13:07:23.061216,15.35798089,.00064285,97.6896,7.2849,29.0805,331.0795,0,U,54695,999,19974,.19423457E-3,.6681E-4,0
STAR VIBE,2023-001A,2026-07-15T13:48:05.152032,15.43360225,.0005446,97.3155,261.1661,30.1891,329.9670,0,U,55009,999,19660,.19467244E-3,.86E-4,0
BRO-8,2023-001C,2026-07-15T14:01:15.322368,15.50767984,.00047801,97.3186,262.2096,38.6525,321.5068,0,U,55011,999,19660,.38949353E-3,.22372E-3,0
CONNECTA T1.2,2023-001D,2026-07-14T18:28:17.576832,15.52862392,.00037565,97.3245,266.9869,8.2106,351.9207,0,U,55012,999,19682,.42165253E-3,.26117E-3,0
BIRKELAND,2023-001G,2026-07-15T14:24:55.334880,15.40541468,.00063545,97.3335,264.6503,19.7865,340.3627,0,U,55015,999,19672,.119136E-3,.4755E-4,0
ION SCV-008,2023-001AU,2026-07-15T12:21:06.753600,15.28881777,.00131914,97.5724,293.3135,271.8960,88.0769,0,U,55051,999,19566,.11910233E-3,.327E-4,0
ION SCV-007,2023-001BD,2026-07-15T03:59:29.825088,14.77576135,.00110742,97.8993,258.6244,242.2989,117.7098,0,U,55060,999,19038,.33457925E-4,.188E-5,0
HUYGENS,2023-001CN,2026-07-15T14:25:02.653824,15.40542647,.00083582,97.3238,263.8430,351.3994,8.7108,0,U,55093,999,19674,.13689837E-3,.548E-4,0
