STARLINK-4621           
1 53676U 22105AE  26196.55889104  .00000157  00000+0  14759-4 0  9993
2 53676  97.2833  74.0852 0001690  91.9607 268.1815 15.05656655212476
SHERPA-LTC2             
1 53754U 22107BG  26196.06603887  .00002023  00000+0  11608-3 0  9993
2 53754  53.2371 102.2960 0392847 304.3565  52.0826 14.69917640206644
CENTISPACE-1 S3         
1 53757U 22108A   26196.59329270  .00000120  00000+0  62229-4 0  9998
2 53757  53.5337 297.7960 0010759  65.5474 294.6622 14.61283538205681
CENTISPACE-1 S4         
1 53758U 22108B   26196.56425389  .00000040  00000+0  45695-4 0  9993
2 53758  53.5310 295.2987 0010073  54.9691 305.2229 14.61971636205716
BLUEWALKER-3            
1 53807U 22111AL  26196.50411065  .00003136  00000+0  91224-4 0  9990
2 53807  53.2283 260.9974 0004558 267.8517  92.1966 15.38612235214560
YUNHAI-1 03             
1 53877U 22115A   26196.61106943  .00000211  00000+0  93566-4 0  9991
2 53877  98.5544 194.3988 0004128 338.1834  21.9173 14.32736844199581
CENTISPACE-1 S5         
1 54020U 22126A   26196.23231063  .00000367  00000+0  10761-3 0  9991
2 54020  54.9989 100.7282 0014373 124.4915 235.7439 14.63056804201149
CENTISPACE-1 S6         
1 54021U 22126B   26196.37626209  .00000270  00000+0  90084-4 0  9997
2 54021  54.9992 102.1498 0016173 126.0107 234.2389 14.62316953201129
OTB-3-GAZELLE           
1 54023U 22127A   26196.49567690  .00000060  00000+0  30932-4 0  9994
2 54023  98.3960 187.7710 0014444 102.1036 258.1774 14.42684093198443
ASO-S                   
1 54029U 22129A   26196.57487733  .00000096  00000+0  34802-4 0  9999
2 54029  98.2756 201.2499 0014542  11.1613 348.9902 14.52074994199543
HJ-2E                   
1 54035U 22132A   26196.61140119  .00003992  00000+0  17361-3 0  9997
2 54035  97.3800 200.4839 0018012 268.7959  91.1214 15.22697342208740
COSMOS 2561             
1 54109U 22137A   26196.53041943  .00007969  00000+0  13202-3 0  9998
2 54109  96.9171 254.4816 0008168 279.2853  80.7477 15.52379139210745
GONETS-M 23             
1 54150U 22139A   26196.59769623  .00000026  00000+0  11368-3 0  9992
2 54150  82.5095 330.6382 0022148 157.6200 202.5851 12.42891961169179
GONETS-M 24             
1 54151U 22139B   26196.57075668  .00000025  00000+0  10755-3 0  9998
2 54151  82.5011 329.6954 0017223 167.2552 192.8967 12.42892524169171
GONETS-M 25             
1 54152U 22139C   26196.55719076  .00000027  00000+0  12137-3 0  9993
2 54152  82.5077 330.4054 0021152 166.2819 193.8840 12.42890918169172
SKIF-D                  
1 54153U 22139D   26196.03740826  .00000013  00000+0  00000+0 0  9991
2 54153  89.9489  96.6602 0007453 187.5838 172.4779  5.00430900 65509
MATS                    
1 54227U 22147A   26196.49711488  .00001720  00000+0  12374-3 0  9991
2 54227  97.6829 197.9741 0014100 102.4160 257.8645 15.05503454202026
EOS-6 (OCEANSAT-3)      
1 54361U 22158A   26196.58302848  .00000116  00000+0  43976-4 0  9999
2 54361  98.3550 294.4015 0000440 145.8213 214.3007 14.46984498191946
DONGPO 09               
1 54685U 22167D   26196.54115843  .00007215  00000+0  20214-3 0  9997
2 54685  97.6914   8.8296 0002769  51.5463 308.6029 15.36939202199802
DONGPO 08               
1 54686U 22167E   26196.57188545  .00005822  00000+0  17832-3 0  9994
2 54686  97.6881   5.9041 0009251  72.7840 287.4414 15.34188344199677
2022-167F               
1 54687U 22167F   26196.61983794  .01338103  25532-5  70266-3 0  9994
2 54687  97.5968  28.5109 0008007 254.6641 105.3763 16.20119605201384
DONGPO 10               
1 54689U 22167H   26196.56349079  .00006415  00000+0  19138-3 0  9997
2 54689  97.6961   7.9141 0004943  27.2452 332.9049 15.35005943199718
JILIN-1 GAOFEN 03D48    
1 54695U 22167P   26196.54679469  .00006681  00000+0  19423-3 0  9993
2 54695  97.6896   7.2849 0006428  29.0805 331.0795 15.35798089199743
STAR VIBE               
1 55009U 23001A   26196.57505963  .00008600  00000+0  19467-3 0  9992
2 55009  97.3155 261.1661 0005446  30.1891 329.9670 15.43360225196604
BRO-8                   
1 55011U 23001C   26196.58420512  .00022372  00000+0  38949-3 0  9990
2 55011  97.3186 262.2096 0004780  38.6525 321.5068 15.50767984196602
CONNECTA T1.2           
1 55012U 23001D   26195.76964788  .00026117  00000+0  42165-3 0  9994
2 55012  97.3245 266.9869 0003756   8.2106 351.9207 15.52862392196825
BIRKELAND               
1 55015U 23001G   26196.60064045  .00004755  00000+0  11914-3 0  9990
2 55015  97.3335 264.6503 0006354  19.7865 340.3627 15.40541468196726
ION SCV-008             
1 55051U 23001AU  26196.51466150  .00003270  00000+0  11910-3 0  9990
2 55051  97.5724 293.3135 0013191 271.8960  88.0769 15.28881777195665
ION SCV-007             
1 55060U 23001BD  26196.16631742  .00000188  00000+0  33458-4 0  9999
2 55060  97.8993 258.6244 0011074 242.2989 117.7098 14.77576135190383
HUYGENS                 
1 55093U 23001CN  26196.60072516  .00005480  00000+0  13690-3 0  9997
2 55093  97.3238 263.8430 0008358 351.3994   8.7108 15.40542647196749
